{"type": "FeatureCollection", "features": [ {"type": "Feature", "properties": {"norad_id": 31226, "name": "FENGYUN 1C DEB", "group": "fengyun-1c-debris", "lat": -51.56887630574532, "lon": 160.38851706698725, "alt_km": 750.6563651228707, "timestamp": "2025-12-17T10:52:54.634595+00:00", "meta": {"OBJECT_NAME": "FENGYUN 1C DEB", "OBJECT_ID": "1999-025BLG", "EPOCH": "2025-12-14T17:50:24.019584", "MEAN_MOTION": 14.266967, "ECCENTRICITY": 0.01268976, "INCLINATION": 98.3502, "RA_OF_ASC_NODE": 348.469, "ARG_OF_PERICENTER": 190.0622, "MEAN_ANOMALY": 169.8016, "EPHEMERIS_TYPE": 0, "CLASSIFICATION_TYPE": "U", "NORAD_CAT_ID": 31226, "ELEMENT_SET_NO": 999, "REV_AT_EPOCH": 62082, "BSTAR": 0.00040971439, "MEAN_MOTION_DOT": 1.037e-05, "MEAN_MOTION_DDOT": 0}, "tle": {"line1": "1 31226U 99025BLG 25348.74333356  .00001037  00000+0  40971-3 0  9999", "line2": "2 31226  98.3502 348.4690 0126897 190.0622 169.8016 14.26696700620820"}}, "geometry": {"type": "Point", "coordinates": [160.38851706698725, -51.56887630574532]}}, {"type": "Feature", "properties": {"norad_id": 31228, "name": "FENGYUN 1C DEB", "group": "fengyun-1c-debris", "lat": 36.036766196149806, "lon": -103.1095274970705, "alt_km": 719.8217738236199, "timestamp": "2025-12-17T10:52:54.634606+00:00", "meta": {"OBJECT_NAME": "FENGYUN 1C DEB", "OBJECT_ID": "1999-025BLJ", "EPOCH": "2025-12-16T12:07:08.608800", "MEAN_MOTION": 14.36931811, "ECCENTRICITY": 0.00793774, "INCLINATION": 98.8693, "RA_OF_ASC_NODE": 262.4364, "ARG_OF_PERICENTER": 75.0197, "MEAN_ANOMALY": 98.6465, "EPHEMERIS_TYPE": 0, "CLASSIFICATION_TYPE": "U", "NORAD_CAT_ID": 31228, "ELEMENT_SET_NO": 999, "REV_AT_EPOCH": 97623, "BSTAR": 0.00040768037, "MEAN_MOTION_DOT": 1.204e-05, "MEAN_MOTION_DDOT": 0}, "tle": {"line1": "1 31228U 99025BLJ 25350.50496075  .00001204  00000+0  40768-3 0  9996", "line2": "2 31228  98.8693 262.4364 0079377  75.0197  98.6465 14.36931811976232"}}, "geometry": {"type": "Point", "coordinates": [-103.1095274970705, 36.036766196149806]}}, {"type": "Feature", "properties": {"norad_id": 31229, "name": "FENGYUN 1C DEB", "group": "fengyun-1c-debris", "lat": -60.651300697064876, "lon": 82.90768631312642, "alt_km": 789.2012020496613, "timestamp": "2025-12-17T10:52:54.634616+00:00", "meta": {"OBJECT_NAME": "FENGYUN 1C DEB", "OBJECT_ID": "1999-025BLK", "EPOCH": "2025-12-15T15:15:33.166656", "MEAN_MOTION": 14.2183845, "ECCENTRICITY": 0.00532694, "INCLINATION": 98.8682, "RA_OF_ASC_NODE": 64.9605, "ARG_OF_PERICENTER": 288.2219, "MEAN_ANOMALY": 71.3165, "EPHEMERIS_TYPE": 0, "CLASSIFICATION_TYPE": "U", "NORAD_CAT_ID": 31229, "ELEMENT_SET_NO": 999, "REV_AT_EPOCH": 96125, "BSTAR": 0.0011241879, "MEAN_MOTION_DOT": 2.467e-05, "MEAN_MOTION_DDOT": 0}, "tle": {"line1": "1 31229U 99025BLK 25349.63580054  .00002467  00000+0  11242-2 0  9996", "line2": "2 31229  98.8682  64.9605 0053269 288.2219  71.3165 14.21838450961259"}}, "geometry": {"type": "Point", "coordinates": [82.90768631312642, -60.651300697064876]}}, {"type": "Feature", "properties": {"norad_id": 31231, "name": "FENGYUN 1C DEB", "group": "fengyun-1c-debris", "lat": 32.10941566109464, "lon": -23.338507719010654, "alt_km": 582.4328796188838, "timestamp": "2025-12-17T10:52:54.634626+00:00", "meta": {"OBJECT_NAME": "FENGYUN 1C DEB", "OBJECT_ID": "1999-025BLM", "EPOCH": "2025-12-15T04:31:52.176576", "MEAN_MOTION": 14.75732437, "ECCENTRICITY": 0.01455115, "INCLINATION": 98.8603, "RA_OF_ASC_NODE": 148.5632, "ARG_OF_PERICENTER": 98.5999, "MEAN_ANOMALY": 263.1725, "EPHEMERIS_TYPE": 0, "CLASSIFICATION_TYPE": "U", "NORAD_CAT_ID": 31231, "ELEMENT_SET_NO": 999, "REV_AT_EPOCH": 63057, "BSTAR": 0.0017470696, "MEAN_MOTION_DOT": 0.00014172, "MEAN_MOTION_DDOT": 0}, "tle": {"line1": "1 31231U 99025BLM 25349.18879834  .00014172  00000+0  17471-2 0  9992", "line2": "2 31231  98.8603 148.5632 0145511  98.5999 263.1725 14.75732437630571"}}, "geometry": {"type": "Point", "coordinates": [-23.338507719010654, 32.10941566109464]}}, {"type": "Feature", "properties": {"norad_id": 31234, "name": "FENGYUN 1C DEB", "group": "fengyun-1c-debris", "lat": 28.73996988501797, "lon": -19.532552935168393, "alt_km": 917.6292375863422, "timestamp": "2025-12-17T10:52:54.634636+00:00", "meta": {"OBJECT_NAME": "FENGYUN 1C DEB", "OBJECT_ID": "1999-025BLQ", "EPOCH": "2025-12-15T17:48:38.064672", "MEAN_MOTION": 14.08019353, "ECCENTRICITY": 0.00731869, "INCLINATION": 98.7845, "RA_OF_ASC_NODE": 343.6665, "ARG_OF_PERICENTER": 218.2993, "MEAN_ANOMALY": 141.2966, "EPHEMERIS_TYPE": 0, "CLASSIFICATION_TYPE": "U", "NORAD_CAT_ID": 31234, "ELEMENT_SET_NO": 999, "REV_AT_EPOCH": 72762, "BSTAR": 0.00018743771, "MEAN_MOTION_DOT": 2.83e-06, "MEAN_MOTION_DDOT": 0}, "tle": {"line1": "1 31234U 99025BLQ 25349.74210723  .00000283  00000+0  18744-3 0  9996", "line2": "2 31234  98.7845 343.6665 0073186 218.2993 141.2966 14.08019353727625"}}, "geometry": {"type": "Point", "coordinates": [-19.532552935168393, 28.73996988501797]}}, {"type": "Feature", "properties": {"norad_id": 31235, "name": "FENGYUN 1C DEB", "group": "fengyun-1c-debris", "lat": -12.725854115935025, "lon": -42.416471880880685, "alt_km": 963.3570629606138, "timestamp": "2025-12-17T10:52:54.634646+00:00", "meta": {"OBJECT_NAME": "FENGYUN 1C DEB", "OBJECT_ID": "1999-025BLR", "EPOCH": "2025-12-14T15:57:46.708416", "MEAN_MOTION": 14.18646746, "ECCENTRICITY": 0.01796863, "INCLINATION": 98.4679, "RA_OF_ASC_NODE": 136.8475, "ARG_OF_PERICENTER": 16.4249, "MEAN_ANOMALY": 344.2647, "EPHEMERIS_TYPE": 0, "CLASSIFICATION_TYPE": "U", "NORAD_CAT_ID": 31235, "ELEMENT_SET_NO": 999, "REV_AT_EPOCH": 63194, "BSTAR": 0.002392139, "MEAN_MOTION_DOT": 5.783e-05, "MEAN_MOTION_DDOT": 0}, "tle": {"line1": "1 31235U 99025BLR 25348.66512394  .00005783  00000+0  23921-2 0  9998", "line2": "2 31235  98.4679 136.8475 0179686  16.4249 344.2647 14.18646746631946"}}, "geometry": {"type": "Point", "coordinates": [-42.416471880880685, -12.725854115935025]}}, {"type": "Feature", "properties": {"norad_id": 31236, "name": "FENGYUN 1C DEB", "group": "fengyun-1c-debris", "lat": -47.98975440885637, "lon": 116.66384720879076, "alt_km": 1172.246954784282, "timestamp": "2025-12-17T10:52:54.634656+00:00", "meta": {"OBJECT_NAME": "FENGYUN 1C DEB", "OBJECT_ID": "1999-025BLS", "EPOCH": "2025-12-16T14:43:41.450880", "MEAN_MOTION": 13.85901225, "ECCENTRICITY": 0.03148631, "INCLINATION": 98.5451, "RA_OF_ASC_NODE": 305.5049, "ARG_OF_PERICENTER": 36.1981, "MEAN_ANOMALY": 326.0045, "EPHEMERIS_TYPE": 0, "CLASSIFICATION_TYPE": "U", "NORAD_CAT_ID": 31236, "ELEMENT_SET_NO": 999, "REV_AT_EPOCH": 61078, "BSTAR": 0.0042470264, "MEAN_MOTION_DOT": 7.163e-05, "MEAN_MOTION_DDOT": 0}, "tle": {"line1": "1 31236U 99025BLS 25350.61367420  .00007163  00000+0  42470-2 0  9999", "line2": "2 31236  98.5451 305.5049 0314863  36.1981 326.0045 13.85901225610786"}}, "geometry": {"type": "Point", "coordinates": [116.66384720879076, -47.98975440885637]}}, {"type": "Feature", "properties": {"norad_id": 31237, "name": "FENGYUN 1C DEB", "group": "fengyun-1c-debris", "lat": -28.476940774110222, "lon": 165.56416571815163, "alt_km": 830.1302731098858, "timestamp": "2025-12-17T10:52:54.634666+00:00", "meta": {"OBJECT_NAME": "FENGYUN 1C DEB", "OBJECT_ID": "1999-025BLT", "EPOCH": "2025-12-16T10:25:02.043552", "MEAN_MOTION": 14.31402058, "ECCENTRICITY": 0.00887326, "INCLINATION": 98.4532, "RA_OF_ASC_NODE": 349.1988, "ARG_OF_PERICENTER": 338.0293, "MEAN_ANOMALY": 21.7096, "EPHEMERIS_TYPE": 0, "CLASSIFICATION_TYPE": "U", "NORAD_CAT_ID": 31237, "ELEMENT_SET_NO": 999, "REV_AT_EPOCH": 97319, "BSTAR": 0.00049043883, "MEAN_MOTION_DOT": 1.315e-05, "MEAN_MOTION_DDOT": 0}, "tle": {"line1": "1 31237U 99025BLT 25350.43405143  .00001315  00000+0  49044-3 0  9993", "line2": "2 31237  98.4532 349.1988 0088732 338.0293  21.7096 14.31402058973199"}}, "geometry": {"type": "Point", "coordinates": [165.56416571815163, -28.476940774110222]}}, {"type": "Feature", "properties": {"norad_id": 31239, "name": "FENGYUN 1C DEB", "group": "fengyun-1c-debris", "lat": 37.16193389492886, "lon": -20.442017731691863, "alt_km": 887.0354726794249, "timestamp": "2025-12-17T10:52:54.634676+00:00", "meta": {"OBJECT_NAME": "FENGYUN 1C DEB", "OBJECT_ID": "1999-025BLV", "EPOCH": "2025-12-16T23:02:46.931424", "MEAN_MOTION": 14.09867264, "ECCENTRICITY": 0.00494715, "INCLINATION": 98.7582, "RA_OF_ASC_NODE": 345.7885, "ARG_OF_PERICENTER": 186.0304, "MEAN_ANOMALY": 230.4714, "EPHEMERIS_TYPE": 0, "CLASSIFICATION_TYPE": "U", "NORAD_CAT_ID": 31239, "ELEMENT_SET_NO": 999, "REV_AT_EPOCH": 96071, "BSTAR": 0.00029718787, "MEAN_MOTION_DOT": 4.86e-06, "MEAN_MOTION_DDOT": 0}, "tle": {"line1": "1 31239U 99025BLV 25350.96026541  .00000486  00000+0  29719-3 0  9999", "line2": "2 31239  98.7582 345.7885 0049471 186.0304 230.4714 14.09867264960717"}}, "geometry": {"type": "Point", "coordinates": [-20.442017731691863, 37.16193389492886]}}, {"type": "Feature", "properties": {"norad_id": 31241, "name": "FENGYUN 1C DEB", "group": "fengyun-1c-debris", "lat": -0.14093637732459105, "lon": -41.39502394435416, "alt_km": 719.0935948019278, "timestamp": "2025-12-17T10:52:54.634686+00:00", "meta": {"OBJECT_NAME": "FENGYUN 1C DEB", "OBJECT_ID": "1999-025BLX", "EPOCH": "2025-12-14T08:36:30.410784", "MEAN_MOTION": 14.38706808, "ECCENTRICITY": 0.00668387, "INCLINATION": 99.2333, "RA_OF_ASC_NODE": 135.3007, "ARG_OF_PERICENTER": 176.3169, "MEAN_ANOMALY": 183.8522, "EPHEMERIS_TYPE": 0, "CLASSIFICATION_TYPE": "U", "NORAD_CAT_ID": 31241, "ELEMENT_SET_NO": 999, "REV_AT_EPOCH": 97714, "BSTAR": 0.00079512814, "MEAN_MOTION_DOT": 2.454e-05, "MEAN_MOTION_DDOT": 0}, "tle": {"line1": "1 31241U 99025BLX 25348.35868531  .00002454  00000+0  79513-3 0  9999", "line2": "2 31241  99.2333 135.3007 0066838 176.3169 183.8522 14.38706808977147"}}, "geometry": {"type": "Point", "coordinates": [-41.39502394435416, -0.14093637732459105]}}]}